IRIDIUM 171             
1 43929U 19002H   25066.82855193  .00000045  00000+0  91391-5 0  9995
2 43929  86.4048 188.7126 0001643  91.4460 268.6924 14.34217517322111
IRIDIUM 170             
1 43930U 19002J   25066.83876774  .00001969  00000+0  30837-3 0  9998
2 43930  86.6164 188.4817 0002295  82.6153 277.5325 14.72254100330645
IRIDIUM 167             
1 43931U 19002K   25066.82221126  .00000485  00000+0  16605-3 0  9992
2 43931  86.4038 188.4792 0002086  84.3243 275.8191 14.34214371322112
IRIDIUM 181             
1 56726U 23068S   25066.58898590  .00000271  00000+0  74421-4 0  9997
2 56726  86.4457 251.6652 0001756  79.2285 280.9114 14.43309736 95134
IRIDIUM 177             
1 56727U 23068T   25066.39829382  .00001535  00000+0  19855-3 0  9993
2 56727  86.2028 190.3984 0002132  87.9278 272.2187 14.80233940 97311
IRIDIUM 174             
1 56728U 23068U   25066.39286229  .00002182  00000+0  28371-3 0  9993
2 56728  86.2029 190.5252 0001608  99.3568 260.7835 14.80236434 97312
IRIDIUM 178             
1 56729U 23068V   25066.45503559  .00002302  00000+0  29943-3 0  9999
2 56729  86.5782 220.3887 0001299 107.0221 253.1143 14.80237585 97324
IRIDIUM 179             
1 56730U 23068W   25066.51718525  .00003176  00000+0  41468-3 0  9995
2 56730  86.6778 227.8058 0002086  93.9283 266.2177 14.80219739 97334
